[{"OBJECT_NAME":"STARLINK-3626","OBJECT_ID":"2022-017AA","EPOCH":"2026-03-09T04:06:11.916864","MEAN_MOTION":15.08836378,"ECCENTRICITY":0.0001504,"INCLINATION":53.22,"RA_OF_ASC_NODE":351.4484,"ARG_OF_PERICENTER":79.5998,"MEAN_ANOMALY":280.5163,"EPHEMERIS_TYPE":0,"CLASSIFICATION_TYPE":"U","NORAD_CAT_ID":51792,"ELEMENT_SET_NO":999,"REV_AT_EPOCH":22389,"BSTAR":-1.4603933e-5,"MEAN_MOTION_DOT":-5.2e-6,"MEAN_MOTION_DDOT":0},{"OBJECT_NAME":"LEMUR-2-AHMED-ASRAR","OBJECT_ID":"2024-149DN","EPOCH":"2026-03-09T17:35:01.338432","MEAN_MOTION":15.10376432,"ECCENTRICITY":0.00016334,"INCLINATION":97.7021,"RA_OF_ASC_NODE":152.9847,"ARG_OF_PERICENTER":18.5035,"MEAN_ANOMALY":341.6253,"EPHEMERIS_TYPE":0,"CLASSIFICATION_TYPE":"U","NORAD_CAT_ID":60576,"ELEMENT_SET_NO":999,"REV_AT_EPOCH":8554,"BSTAR":0.0007977347,"MEAN_MOTION_DOT":0.00013045,"MEAN_MOTION_DDOT":0}]
