STARLINK-3626           
1 51792U 22017AA  26068.17097126 -.00000520  00000+0 -14604-4 0  9998
2 51792  53.2200 351.4484 0001504  79.5998 280.5163 15.08836378223892
LEMUR-2-AHMED-ASRAR     
1 60576U 24149DN  26068.73265438  .00013045  00000+0  79773-3 0  9992
2 60576  97.7021 152.9847 0001633  18.5035 341.6253 15.10376432 85541
